OBJECT_NAME,OBJECT_ID,EPOCH,MEAN_MOTION,ECCENTRICITY,INCLINATION,RA_OF_ASC_NODE,ARG_OF_PERICENTER,MEAN_ANOMALY,EPHEMERIS_TYPE,CLASSIFICATION_TYPE,NORAD_CAT_ID,ELEMENT_SET_NO,REV_AT_EPOCH,BSTAR,MEAN_MOTION_DOT,MEAN_MOTION_DDOT
ONEWEB-0309,2021-075W,2026-06-08T03:05:07.045728,13.17647607,.00017457,87.9142,7.6652,102.3714,257.7613,0,U,49095,999,23238,-.88354148E-4,-.21E-6,0
ONEWEB-0310,2021-075X,2026-06-08T02:05:29.652864,13.12442108,.00017811,87.8941,352.4909,89.7650,270.3682,0,U,49096,999,23399,-.89893632E-4,-.2E-6,0
ONEWEB-0311,2021-075Y,2026-06-08T03:14:51.667008,13.17649573,.00023135,87.9139,7.6630,85.1618,274.9778,0,U,49097,999,23243,.2927702E-3,.127E-5,0
ONEWEB-0312,2021-075Z,2026-06-07T20:19:20.025120,13.17647376,.00020573,87.9140,7.7321,93.4513,266.6854,0,U,49098,999,23237,-.19637724E-3,-.63E-6,0
ONEWEB-0313,2021-075AA,2026-06-08T00:05:06.127296,13.17647931,.00020178,87.9136,7.7068,86.9991,273.1372,0,U,49099,999,23238,-.1887815E-5,.12E-6,0
ONEWEB-0314,2021-075AB,2026-06-08T02:55:25.092480,13.17648655,.00021651,87.9150,7.6544,94.1700,265.9679,0,U,49100,999,23237,-.14509279E-4,.7E-7,0
ONEWEB-0315,2021-075AC,2026-06-08T01:26:28.388256,13.12444193,.00020731,87.8951,352.4600,82.8635,277.2729,0,U,49101,999,23397,.15557775E-2,.572E-5,0
ONEWEB-0316,2021-075AD,2026-06-08T04:55:45.863616,13.18686535,.00019294,87.9158,337.2440,90.5865,269.5488,0,U,49102,999,23602,-.15992019E-4,.7E-7,0
ONEWEB-0317,2021-075AE,2026-06-08T01:31:21.256608,13.12443214,.00012283,87.8950,352.4829,106.1694,253.9570,0,U,49103,999,23399,.12685082E-2,.469E-5,0
ONEWEB-0318,2021-075AF,2026-06-08T04:50:54.272256,13.18685794,.00020418,87.9167,337.2453,87.1943,272.9422,0,U,49104,999,23598,.49900086E-4,.33E-6,0
ONEWEB-0319,2021-075AG,2026-06-08T03:17:16.590048,13.17648433,.00023485,87.9138,7.6683,80.0158,280.1239,0,U,49105,999,23241,.57864639E-4,.35E-6,0
ONEWEB-0323,2021-075AH,2026-06-08T01:04:30.749376,13.12444531,.00023764,87.8950,352.4679,86.3087,273.8313,0,U,49106,999,23335,.99108784E-4,.48E-6,0
ONEWEB-0329,2021-075AJ,2026-06-08T03:29:25.601280,13.17647874,.00020044,87.9141,7.6680,89.2345,270.9016,0,U,49107,999,23239,-.11871178E-3,-.33E-6,0
ONEWEB-0330,2021-075AK,2026-06-08T02:14:18.873600,13.17648845,.00019348,87.9142,7.6982,94.0000,266.1353,0,U,49108,999,23242,.26192498E-3,.115E-5,0
ONEWEB-0292,2021-083A,2026-06-08T04:14:18.101760,13.13469528,.00019974,87.8939,322.0339,91.4394,268.6964,0,U,49186,999,22974,-.92366758E-3,-.325E-5,0
ONEWEB-0303,2021-083B,2026-06-08T04:46:03.175968,13.18686593,.0001998,87.9161,337.2452,89.1822,270.9539,0,U,49187,999,22879,.35291451E-3,.152E-5,0
ONEWEB-0306,2021-083C,2026-06-08T00:52:57.363456,13.18686926,.0001657,87.9168,337.2649,95.3883,264.7438,0,U,49188,999,22881,-.14278017E-3,-.43E-6,0
ONEWEB-0307,2021-083D,2026-06-08T04:05:46.534272,13.13469286,.00019372,87.8949,322.0315,94.4262,265.7089,0,U,49189,999,22974,-.76507625E-3,-.267E-5,0
ONEWEB-0320,2021-083E,2026-06-08T05:00:36.077760,13.18685292,.00018115,87.9157,337.2498,91.5627,268.5713,0,U,49190,999,22879,.29132205E-4,.24E-6,0
ONEWEB-0321,2021-083F,2026-06-07T21:11:28.210560,13.20771597,.00017026,87.9190,276.2894,104.8488,255.2834,0,U,49191,999,23560,-.6536588E-5,.1E-6,0
ONEWEB-0322,2021-083G,2026-06-08T03:59:40.596576,13.13469626,.00013804,87.8946,322.0323,91.7307,268.3980,0,U,49192,999,22973,-.76720442E-3,-.267E-5,0
ONEWEB-0324,2021-083H,2026-06-08T00:43:13.308960,13.18684223,.00018867,87.9169,337.2716,97.0180,263.1167,0,U,49193,999,22879,.550116E-5,.15E-6,0
ONEWEB-0325,2021-083J,2026-06-07T22:58:49.634688,13.18685140,.00018389,87.9160,337.2953,88.7039,271.4303,0,U,49194,999,22879,.48616521E-4,.32E-6,0
ONEWEB-0326,2021-083K,2026-06-08T04:48:39.917664,13.18684679,.00020715,87.9167,337.2439,86.2756,273.8613,0,U,49195,999,22881,-.49532889E-4,-.7E-7,0
ONEWEB-0327,2021-083L,2026-06-08T04:48:15.507936,13.18687665,.00020928,87.9159,337.2489,81.3035,278.8334,0,U,49196,999,22883,.7335082E-5,.16E-6,0
ONEWEB-0328,2021-083M,2026-06-08T03:45:03.106944,13.13469025,.00018776,87.8958,322.0069,98.6636,261.4706,0,U,49197,999,22971,-.13920771E-3,-.38E-6,0
ONEWEB-0331,2021-083N,2026-06-08T01:00:14.495616,13.18685635,.00021697,87.9168,337.2691,88.7313,271.4067,0,U,49198,999,22880,-.20918651E-3,-.7E-6,0
ONEWEB-0333,2021-083P,2026-06-08T03:37:44.239008,13.13469158,.00017962,87.8946,322.0351,92.3199,267.8136,0,U,49199,999,22972,.20538938E-3,.88E-6,0
ONEWEB-0334,2021-083Q,2026-06-07T17:58:43.941216,13.20772694,.00009985,87.9188,276.3281,107.2974,252.8269,0,U,49200,999,23554,.23455515E-3,.108E-5,0
ONEWEB-0335,2021-083R,2026-06-08T03:30:26.116704,13.13469859,.00020032,87.8948,322.0330,93.2859,266.8499,0,U,49201,999,22973,.54670766E-3,.212E-5,0
